NORAD_CAT_ID,OBJECT_NAME,OBJECT_TYPE,EPOCH,MEAN_MOTION,ECCENTRICITY,INCLINATION,RA_OF_ASC_NODE,ARG_OF_PERICENTER,MEAN_ANOMALY,BSTAR,MEAN_MOTION_DOT,MEAN_MOTION_DDOT,TLE_LINE0,TLE_LINE1,TLE_LINE2,SEMIMAJOR_AXIS,PERIOD,APOGEE,PERIGEE,DECAYED
53408.0,STARLINK-4491,PAYLOAD,2022-11-02 18:00:02,15.088275,0.0001617,53.2144,204.1056,68.6694,79.1143,0.0014946,0.0002356999999999,0.0,0 STARLINK-4491,1 53408U 22097W   22306.75002315  .00023570  00000-0  14946-2 0  9999,2 53408  53.2144 204.1056 0001617  68.6694  79.1143 15.08827500 13536,6917.919,95.438,540.9019999999998,538.665,0.0
53408.0,STARLINK-4491,PAYLOAD,2022-11-03 02:53:12,15.08844206,0.000166,53.2143,202.4463,59.5235,300.5921,6.911699999999999e-06,-1.78e-06,0.0,0 STARLINK-4491,1 53408U 22097W   22307.12028237 -.00000178  00000-0  69117-5 0  9995,2 53408  53.2143 202.4463 0001660  59.5235 300.5921 15.08844206 14084,6917.868,95.437,540.881,538.5840000000002,0.0
53408.0,STARLINK-4491,PAYLOAD,2022-11-04 02:43:58,15.08846863,0.0001625,53.2142,197.9857,56.2432,303.8715,4.748600000000001e-05,4.68e-06,0.0,0 STARLINK-4491,1 53408U 22097W   22308.11387371  .00000468  00000-0  47486-4 0  9997,2 53408  53.2142 197.9857 0001625  56.2432 303.8715 15.08846863 14237,6917.859,95.437,540.849,538.6,0.0
53408.0,STARLINK-4491,PAYLOAD,2022-11-05 08:56:19,15.08840894,0.0001656,53.2141,192.336,56.4779,303.6371,-0.00014417,-2.582e-05,0.0,0 STARLINK-4491,1 53408U 22097W   22309.37244235 -.00002582  00000-0 -14417-3 0  9995,2 53408  53.2141 192.3360 0001656  56.4779 303.6371 15.08840894 14429,6917.878000000002,95.437,540.888,538.597,0.0
53408.0,STARLINK-4491,PAYLOAD,2022-11-05 15:17:53,15.08823624,0.0002169,53.214,191.1457,61.3475,298.7735,-0.00018464,-3.224e-05,0.0,0 STARLINK-4491,1 53408U 22097W   22309.63741901 -.00003224  00000-0 -18464-3 0  9996,2 53408  53.2140 191.1457 0002169  61.3475 298.7735 15.08823624 13979,6917.93,95.439,541.2959999999998,538.295,0.0
53408.0,STARLINK-4491,PAYLOAD,2022-11-06 00:50:13,15.08807849,0.0001836,53.2164,189.3602,63.1098,297.0081,-0.0002396,-4.096e-05,0.0,0 STARLINK-4491,1 53408U 22097W   22310.03487727 -.00004096  00000-0 -23960-3 0  9990,2 53408  53.2164 189.3602 0001836  63.1098 297.0081 15.08807849 14032,6917.979,95.44,541.114,538.5740000000002,0.0
53408.0,STARLINK-4491,PAYLOAD,2022-11-06 21:30:12,15.08819432,0.0001598,53.2173,185.4921,71.5631,288.5535,0.00019466,2.81e-05,0.0,0 STARLINK-4491,1 53408U 22097W   22310.89597960  .00002810  00000-0  19466-3 0  9991,2 53408  53.2173 185.4921 0001598  71.5631 288.5535 15.08819432 14168,6917.943,95.439,540.914,538.703,0.0
53408.0,STARLINK-4491,PAYLOAD,2022-11-07 08:37:55,15.08819733,0.0002096,53.2151,183.4134,63.5443,296.5764,0.00010889,1.444e-05,0.0,0 STARLINK-4491,1 53408U 22097W   22311.35967096  .00001444  00000-0  10889-3 0  9996,2 53408  53.2151 183.4134 0002096  63.5443 296.5764 15.08819733 14723,6917.941999999999,95.439,541.257,538.357,0.0
53408.0,STARLINK-4491,PAYLOAD,2022-11-08 00:31:46,15.08831617,0.0001684,53.215,180.4391,62.4895,297.6268,0.00027211,4.044e-05,0.0,0 STARLINK-4491,1 53408U 22097W   22312.02206283  .00004044  00000-0  27211-3 0  9991,2 53408  53.2150 180.4391 0001684  62.4895 297.6268 15.08831617 14338,6917.906,95.438,540.936,538.606,0.0
53408.0,STARLINK-4491,PAYLOAD,2022-11-08 08:28:41,15.0883916,0.0001686999999999,53.215,178.9524,63.453,296.6635,0.00027582,4.104e-05,0.0,0 STARLINK-4491,1 53408U 22097W   22312.35325821  .00004104  00000-0  27582-3 0  9995,2 53408  53.2150 178.9524 0001687  63.4530 296.6635 15.08839160 14875,6917.8830000000025,95.438,540.915,538.581,0.0
53408.0,STARLINK-4491,PAYLOAD,2022-11-08 22:47:09,15.08855067,0.0001709,53.2144,176.2761,62.4617,297.6549,7.064199999999999e-05,8.37e-06,0.0,0 STARLINK-4491,1 53408U 22097W   22312.94941052  .00000837  00000-0  70642-4 0  9995,2 53408  53.2144 176.2761 0001709  62.4617 297.6549 15.08855067 14477,6917.834,95.437,540.882,538.5169999999998,0.0
53408.0,STARLINK-4491,PAYLOAD,2022-11-09 08:19:28,15.08846323,0.0001284,53.2167,174.4924,53.1901,306.9209,-9.8825e-05,-1.861e-05,0.0,0 STARLINK-4491,1 53408U 22097W   22313.34685768 -.00001861  00000-0 -98825-4 0  9992,2 53408  53.2167 174.4924 0001284  53.1901 306.9209 15.08846323 15028,6917.861,95.437,540.614,538.8380000000002,0.0
53408.0,STARLINK-4491,PAYLOAD,2022-11-09 21:02:33,15.088462,0.0001559,53.2162,172.1124,63.5346,296.5805,-0.00011052,-2.047e-05,0.0,0 STARLINK-4491,1 53408U 22097W   22313.87677918 -.00002047  00000-0 -11052-3 0  9991,2 53408  53.2162 172.1124 0001559  63.5346 296.5805 15.08846200 14617,6917.861,95.437,540.805,538.648,0.0
53408.0,STARLINK-4491,PAYLOAD,2022-11-10 08:10:16,15.08833757,0.0001672,53.2149,170.0322,59.3207,300.795,-0.00019732,-3.427e-05,0.0,0 STARLINK-4491,1 53408U 22097W   22314.34046996 -.00003427  00000-0 -19732-3 0  9996,2 53408  53.2149 170.0322 0001672  59.3207 300.7950 15.08833757 15178,6917.899,95.438,540.9209999999998,538.6080000000002,0.0
53408.0,STARLINK-4491,PAYLOAD,2022-11-10 17:42:35,15.08834601,0.0001693,53.2149,168.2492,54.176,305.9389,-0.00015215,-2.708e-05,0.0,0 STARLINK-4491,1 53408U 22097W   22314.73790865 -.00002708  00000-0 -15215-3 0  9993,2 53408  53.2149 168.2492 0001693  54.1760 305.9389 15.08834601 14749,6917.897,95.438,540.933,538.591,0.0
53408.0,STARLINK-4491,PAYLOAD,2022-11-10 20:53:21,15.0890596,0.0001663,53.2156,167.6542,42.4609,317.6511,-0.00094472,-0.00015319,0.0,0 STARLINK-4491,1 53408U 22097W   22314.87038504 -.00015319  00000-0 -94472-3 0  9997,2 53408  53.2156 167.6542 0001663  42.4609 317.6511 15.08905960 15256,6917.679,95.433,540.694,538.393,0.0
53408.0,STARLINK-4491,PAYLOAD,2022-11-11 00:04:07,15.088332800000002,0.0001673,53.2154,167.0593,57.7642,302.3512,-5.5426e-05,-1.17e-05,0.0,0 STARLINK-4491,1 53408U 22097W   22315.00286635 -.00001170  00000-0 -55426-4 0  9990,2 53408  53.2154 167.0593 0001673  57.7642 302.3512 15.08833280 15270,6917.901,95.438,540.923,538.609,0.0
53408.0,STARLINK-4491,PAYLOAD,2022-11-11 14:22:35,15.08834905,0.0001663,53.2154,164.38299999999995,54.8742,305.2406,2.456800000000001e-05,1.03e-06,0.0,0 STARLINK-4491,1 53408U 22097W   22315.59902430  .00000103  00000-0  24568-4 0  9998,2 53408  53.2154 164.3830 0001663  54.8742 305.2406 15.08834905 14876,6917.896,95.438,540.911,538.611,0.0
53408.0,STARLINK-4491,PAYLOAD,2022-11-11 20:44:07,15.08838126,0.0001585,53.2157,163.1927,60.7337,299.3813,6.1257e-05,6.87e-06,0.0,0 STARLINK-4491,1 53408U 22097W   22315.86398142  .00000687  00000-0  61257-4 0  9990,2 53408  53.2157 163.1927 0001585  60.7337 299.3813 15.08838126 15406,6917.886,95.438,540.8480000000002,538.655,0.0
53408.0,STARLINK-4491,PAYLOAD,2022-11-11 23:54:54,15.08837347,0.0001615,53.2161,162.5974,59.2837,300.8314,0.00015131,2.121e-05,0.0,0 STARLINK-4491,1 53408U 22097W   22315.99645837  .00002121  00000-0  15131-3 0  9994,2 53408  53.2161 162.5974 0001615  59.2837 300.8314 15.08837347 14933,6917.888000000001,95.438,540.871,538.636,0.0
53408.0,STARLINK-4491,PAYLOAD,2022-11-12 18:59:32,15.08835271,0.0001565999999999,53.2156,159.0294,60.6769,299.4379,7.133e-05,8.47e-06,0.0,0 STARLINK-4491,1 53408U 22097W   22316.79134405  .00000847  00000-0  71330-4 0  9994,2 53408  53.2156 159.0294 0001566  60.6769 299.4379 15.08835271 15050,6917.895,95.438,540.8430000000002,538.677,0.0
53408.0,STARLINK-4491,PAYLOAD,2022-11-12 20:34:55,15.08836719,0.000156,53.2158,158.732,59.6195,300.4952,4.374300000000001e-05,4.08e-06,0.0,0 STARLINK-4491,1 53408U 22097W   22316.85758429  .00000408  00000-0  43743-4 0  9999,2 53408  53.2158 158.7320 0001560  59.6195 300.4952 15.08836719 15556,6917.89,95.438,540.835,538.6759999999998,0.0
53408.0,STARLINK-4491,PAYLOAD,2022-11-13 06:07:13,15.08840771,0.0001531999999999,53.216,156.9477,58.1908,301.9233,4.736899999999999e-05,4.66e-06,0.0,0 STARLINK-4491,1 53408U 22097W   22317.25502139  .00000466  00000-0  47369-4 0  9991,2 53408  53.2160 156.9477 0001532  58.1908 301.9233 15.08840771 15615,6917.878000000002,95.438,540.803,538.683,0.0
53408.0,STARLINK-4491,PAYLOAD,2022-11-13 18:50:19,15.08833101,0.0001501,53.2168,154.5692,67.788,292.3271,-7.8122e-05,-1.531e-05,0.0,0 STARLINK-4491,1 53408U 22097W   22317.78495170 -.00001531  00000-0 -78122-4 0  9992,2 53408  53.2168 154.5692 0001501  67.7880 292.3271 15.08833101 15206,6917.901,95.438,540.805,538.7280000000002,0.0
53408.0,STARLINK-4491,PAYLOAD,2022-11-14 05:58:01,15.08836622,0.0001479,53.2161,152.4884,59.9925,300.1213,-6.6488e-05,-1.346e-05,0.0,0 STARLINK-4491,1 53408U 22097W   22318.24863033 -.00001346  00000-0 -66488-4 0  9997,2 53408  53.2161 152.4884 0001479  59.9925 300.1213 15.08836622 15762,6917.891,95.438,540.779,538.7330000000002,0.0
53408.0,STARLINK-4491,PAYLOAD,2022-11-14 17:05:43,15.08838305,0.0001564,53.2162,150.406,60.8162,299.2986,-1.8383e-06,-3.17e-06,0.0,0 STARLINK-4491,1 53408U 22097W   22318.71230730 -.00000317  00000-0 -18383-5 0  9990,2 53408  53.2162 150.4060 0001564  60.8162 299.2986 15.08838305 15839,6917.886,95.438,540.8330000000002,538.669,0.0
53408.0,STARLINK-4491,PAYLOAD,2022-11-14 20:16:29,15.08837959,0.0001561999999999,53.2162,149.8112,60.5582,299.5566,-5.0817e-06,-3.69e-06,0.0,0 STARLINK-4491,1 53408U 22097W   22318.84478775 -.00000369  00000-0 -50817-5 0  9992,2 53408  53.2162 149.8112 0001562  60.5582 299.5566 15.08837959 15369,6917.887,95.438,540.832,538.6709999999998,0.0
53408.0,STARLINK-4491,PAYLOAD,2022-11-15 13:45:43,15.08836589,0.0001498,53.2158,146.5397,57.7167,302.397,9.0542e-05,1.153e-05,0.0,0 STARLINK-4491,1 53408U 22097W   22319.57342476  .00001153  00000-0  90542-4 0  9999,2 53408  53.2158 146.5397 0001498  57.7167 302.3970 15.08836589 15964,6917.891,95.438,540.7919999999998,538.72,0.0
53408.0,STARLINK-4491,PAYLOAD,2022-11-15 20:07:17,15.0883003,0.0001349,53.2158,145.3502,66.6557,293.4577,1.3754e-06,-2.66e-06,0.0,0 STARLINK-4491,1 53408U 22097W   22319.83839167 -.00000266  00000-0  13754-5 0  9992,2 53408  53.2158 145.3502 0001349  66.6557 293.4577 15.08830030 16000,6917.911,95.438,540.7090000000002,538.8430000000002,0.0
